{"type": "FeatureCollection", "features": [ {"type": "Feature", "properties": {"norad_id": 34400, "name": "COSMOS 2251 DEB", "group": "cosmos-2251-debris", "lat": -15.371411371270128, "lon": -173.59901424221175, "alt_km": 397.09014255396414, "timestamp": "2025-12-22T09:53:37.794343+00:00", "meta": {"OBJECT_NAME": "COSMOS 2251 DEB", "OBJECT_ID": "1993-036QR", "EPOCH": "2025-12-21T23:48:22.087584", "MEAN_MOTION": 15.57468025, "ECCENTRICITY": 0.0003063, "INCLINATION": 73.963, "RA_OF_ASC_NODE": 2.8018, "ARG_OF_PERICENTER": 231.6237, "MEAN_ANOMALY": 128.4704, "EPHEMERIS_TYPE": 0, "CLASSIFICATION_TYPE": "U", "NORAD_CAT_ID": 34400, "ELEMENT_SET_NO": 999, "REV_AT_EPOCH": 90118, "BSTAR": 0.0038028, "MEAN_MOTION_DOT": 0.0028987, "MEAN_MOTION_DDOT": 0}, "tle": {"line1": "1 34400U 93036QR  25355.99192231  .00289870  00000+0  38028-2 0  9994", "line2": "2 34400  73.9630   2.8018 0003063 231.6237 128.4704 15.57468025901184"}}, "geometry": {"type": "Point", "coordinates": [-173.59901424221175, -15.371411371270128]}}, {"type": "Feature", "properties": {"norad_id": 34409, "name": "COSMOS 2251 DEB", "group": "cosmos-2251-debris", "lat": -49.307641718329336, "lon": -90.93995191538218, "alt_km": 670.9309943395592, "timestamp": "2025-12-22T09:53:37.794353+00:00", "meta": {"OBJECT_NAME": "COSMOS 2251 DEB", "OBJECT_ID": "1993-036RA", "EPOCH": "2025-12-21T21:12:42.172416", "MEAN_MOTION": 14.5804854, "ECCENTRICITY": 0.0080264, "INCLINATION": 74.0637, "RA_OF_ASC_NODE": 289.4706, "ARG_OF_PERICENTER": 1.4067, "MEAN_ANOMALY": 54.8119, "EPHEMERIS_TYPE": 0, "CLASSIFICATION_TYPE": "U", "NORAD_CAT_ID": 34409, "ELEMENT_SET_NO": 999, "REV_AT_EPOCH": 89326, "BSTAR": 0.0002234, "MEAN_MOTION_DOT": 1.043e-05, "MEAN_MOTION_DDOT": 0}, "tle": {"line1": "1 34409U 93036RA  25355.88382144  .00001043  00000+0  22340-3 0  9990", "line2": "2 34409  74.0637 289.4706 0080264   1.4067  54.8119 14.58048540893268"}}, "geometry": {"type": "Point", "coordinates": [-90.93995191538218, -49.307641718329336]}}, {"type": "Feature", "properties": {"norad_id": 34410, "name": "COSMOS 2251 DEB", "group": "cosmos-2251-debris", "lat": -37.00765073318025, "lon": -131.59511423828795, "alt_km": 519.8475279241857, "timestamp": "2025-12-22T09:53:37.794363+00:00", "meta": {"OBJECT_NAME": "COSMOS 2251 DEB", "OBJECT_ID": "1993-036RB", "EPOCH": "2025-12-21T23:04:14.007936", "MEAN_MOTION": 15.19724259, "ECCENTRICITY": 0.0021464, "INCLINATION": 73.7367, "RA_OF_ASC_NODE": 242.0783, "ARG_OF_PERICENTER": 81.8998, "MEAN_ANOMALY": 293.3319, "EPHEMERIS_TYPE": 0, "CLASSIFICATION_TYPE": "U", "NORAD_CAT_ID": 34410, "ELEMENT_SET_NO": 999, "REV_AT_EPOCH": 89914, "BSTAR": 0.0023078, "MEAN_MOTION_DOT": 0.0004993, "MEAN_MOTION_DDOT": 0}, "tle": {"line1": "1 34410U 93036RB  25355.96127324  .00049930  00000+0  23078-2 0  9993", "line2": "2 34410  73.7367 242.0783 0021464  81.8998 293.3319 15.19724259899149"}}, "geometry": {"type": "Point", "coordinates": [-131.59511423828795, -37.00765073318025]}}, {"type": "Feature", "properties": {"norad_id": 34412, "name": "COSMOS 2251 DEB", "group": "cosmos-2251-debris", "lat": 34.94945151081721, "lon": 114.81050681209919, "alt_km": 762.0562282833098, "timestamp": "2025-12-22T09:53:37.794374+00:00", "meta": {"OBJECT_NAME": "COSMOS 2251 DEB", "OBJECT_ID": "1993-036RD", "EPOCH": "2025-12-21T06:42:21.482784", "MEAN_MOTION": 14.47229294, "ECCENTRICITY": 0.01875477, "INCLINATION": 73.9486, "RA_OF_ASC_NODE": 308.5482, "ARG_OF_PERICENTER": 41.6351, "MEAN_ANOMALY": 319.8911, "EPHEMERIS_TYPE": 0, "CLASSIFICATION_TYPE": "U", "NORAD_CAT_ID": 34412, "ELEMENT_SET_NO": 999, "REV_AT_EPOCH": 87774, "BSTAR": 0.0012144064, "MEAN_MOTION_DOT": 5.508e-05, "MEAN_MOTION_DDOT": 0}, "tle": {"line1": "1 34412U 93036RD  25355.27941531  .00005508  00000+0  12144-2 0  9998", "line2": "2 34412  73.9486 308.5482 0187547  41.6351 319.8911 14.47229294877744"}}, "geometry": {"type": "Point", "coordinates": [114.81050681209919, 34.94945151081721]}}, {"type": "Feature", "properties": {"norad_id": 34413, "name": "COSMOS 2251 DEB", "group": "cosmos-2251-debris", "lat": 5.228462740447792, "lon": -111.18786646593726, "alt_km": 748.8425285370577, "timestamp": "2025-12-22T09:53:37.794384+00:00", "meta": {"OBJECT_NAME": "COSMOS 2251 DEB", "OBJECT_ID": "1993-036RE", "EPOCH": "2025-12-22T03:44:12.693408", "MEAN_MOTION": 14.29164987, "ECCENTRICITY": 0.0090965, "INCLINATION": 74.0306, "RA_OF_ASC_NODE": 247.7764, "ARG_OF_PERICENTER": 322.5234, "MEAN_ANOMALY": 162.9418, "EPHEMERIS_TYPE": 0, "CLASSIFICATION_TYPE": "U", "NORAD_CAT_ID": 34413, "ELEMENT_SET_NO": 999, "REV_AT_EPOCH": 87265, "BSTAR": 0.0012659, "MEAN_MOTION_DOT": 3.334e-05, "MEAN_MOTION_DDOT": 0}, "tle": {"line1": "1 34413U 93036RE  25356.15570247  .00003334  00000+0  12659-2 0  9995", "line2": "2 34413  74.0306 247.7764 0090965 322.5234 162.9418 14.29164987872654"}}, "geometry": {"type": "Point", "coordinates": [-111.18786646593726, 5.228462740447792]}}, {"type": "Feature", "properties": {"norad_id": 34420, "name": "COSMOS 2251 DEB", "group": "cosmos-2251-debris", "lat": 19.765876017932165, "lon": 91.15539921198429, "alt_km": 740.8939263439452, "timestamp": "2025-12-22T09:53:37.794394+00:00", "meta": {"OBJECT_NAME": "COSMOS 2251 DEB", "OBJECT_ID": "1993-036RM", "EPOCH": "2025-12-22T01:55:12.984096", "MEAN_MOTION": 14.68323835, "ECCENTRICITY": 0.0106225, "INCLINATION": 74.0333, "RA_OF_ASC_NODE": 85.8925, "ARG_OF_PERICENTER": 204.8179, "MEAN_ANOMALY": 220.3722, "EPHEMERIS_TYPE": 0, "CLASSIFICATION_TYPE": "U", "NORAD_CAT_ID": 34420, "ELEMENT_SET_NO": 999, "REV_AT_EPOCH": 89907, "BSTAR": 0.00020277, "MEAN_MOTION_DOT": 1.239e-05, "MEAN_MOTION_DDOT": 0}, "tle": {"line1": "1 34420U 93036RM  25356.08001139  .00001239  00000+0  20277-3 0  9992", "line2": "2 34420  74.0333  85.8925 0106225 204.8179 220.3722 14.68323835899073"}}, "geometry": {"type": "Point", "coordinates": [91.15539921198429, 19.765876017932165]}}, {"type": "Feature", "properties": {"norad_id": 34425, "name": "COSMOS 2251 DEB", "group": "cosmos-2251-debris", "lat": -67.64396118060384, "lon": -99.84987092132184, "alt_km": 694.322294435613, "timestamp": "2025-12-22T09:53:37.794404+00:00", "meta": {"OBJECT_NAME": "COSMOS 2251 DEB", "OBJECT_ID": "1993-036RS", "EPOCH": "2025-12-21T06:27:49.476096", "MEAN_MOTION": 14.62170318, "ECCENTRICITY": 0.0024348, "INCLINATION": 74.0185, "RA_OF_ASC_NODE": 38.1671, "ARG_OF_PERICENTER": 162.2654, "MEAN_ANOMALY": 197.9368, "EPHEMERIS_TYPE": 0, "CLASSIFICATION_TYPE": "U", "NORAD_CAT_ID": 34425, "ELEMENT_SET_NO": 999, "REV_AT_EPOCH": 88865, "BSTAR": 0.00038687, "MEAN_MOTION_DOT": 1.925e-05, "MEAN_MOTION_DDOT": 0}, "tle": {"line1": "1 34425U 93036RS  25355.26932264  .00001925  00000+0  38687-3 0  9994", "line2": "2 34425  74.0185  38.1671 0024348 162.2654 197.9368 14.62170318888659"}}, "geometry": {"type": "Point", "coordinates": [-99.84987092132184, -67.64396118060384]}}, {"type": "Feature", "properties": {"norad_id": 34429, "name": "COSMOS 2251 DEB", "group": "cosmos-2251-debris", "lat": -72.15607988981604, "lon": 30.20729579886097, "alt_km": 436.20132716909575, "timestamp": "2025-12-22T09:53:37.794414+00:00", "meta": {"OBJECT_NAME": "COSMOS 2251 DEB", "OBJECT_ID": "1993-036RW", "EPOCH": "2025-12-21T17:16:48.118368", "MEAN_MOTION": 15.45129102, "ECCENTRICITY": 0.0012156, "INCLINATION": 73.9669, "RA_OF_ASC_NODE": 148.4249, "ARG_OF_PERICENTER": 348.9874, "MEAN_ANOMALY": 23.9309, "EPHEMERIS_TYPE": 0, "CLASSIFICATION_TYPE": "U", "NORAD_CAT_ID": 34429, "ELEMENT_SET_NO": 999, "REV_AT_EPOCH": 89587, "BSTAR": 0.0050564, "MEAN_MOTION_DOT": 0.00247928, "MEAN_MOTION_DDOT": 0}, "tle": {"line1": "1 34429U 93036RW  25355.72000137  .00247928  00000+0  50564-2 0  9996", "line2": "2 34429  73.9669 148.4249 0012156 348.9874  23.9309 15.45129102895877"}}, "geometry": {"type": "Point", "coordinates": [30.20729579886097, -72.15607988981604]}}, {"type": "Feature", "properties": {"norad_id": 34430, "name": "COSMOS 2251 DEB", "group": "cosmos-2251-debris", "lat": -26.88595870551125, "lon": -82.82057156820053, "alt_km": 724.4104383198783, "timestamp": "2025-12-22T09:53:37.794424+00:00", "meta": {"OBJECT_NAME": "COSMOS 2251 DEB", "OBJECT_ID": "1993-036RX", "EPOCH": "2025-12-22T01:41:01.205376", "MEAN_MOTION": 14.39659304, "ECCENTRICITY": 0.0060776, "INCLINATION": 74.0518, "RA_OF_ASC_NODE": 286.1467, "ARG_OF_PERICENTER": 353.6095, "MEAN_ANOMALY": 6.4277, "EPHEMERIS_TYPE": 0, "CLASSIFICATION_TYPE": "U", "NORAD_CAT_ID": 34430, "ELEMENT_SET_NO": 999, "REV_AT_EPOCH": 88089, "BSTAR": 0.0004147, "MEAN_MOTION_DOT": 1.299e-05, "MEAN_MOTION_DDOT": 0}, "tle": {"line1": "1 34430U 93036RX  25356.07015284  .00001299  00000+0  41470-3 0  9992", "line2": "2 34430  74.0518 286.1467 0060776 353.6095   6.4277 14.39659304880895"}}, "geometry": {"type": "Point", "coordinates": [-82.82057156820053, -26.88595870551125]}}, {"type": "Feature", "properties": {"norad_id": 34431, "name": "COSMOS 2251 DEB", "group": "cosmos-2251-debris", "lat": -35.56613041467034, "lon": -10.528062445843833, "alt_km": 789.7958648418053, "timestamp": "2025-12-22T09:53:37.794434+00:00", "meta": {"OBJECT_NAME": "COSMOS 2251 DEB", "OBJECT_ID": "1993-036RY", "EPOCH": "2025-12-21T21:07:25.926816", "MEAN_MOTION": 14.28804187, "ECCENTRICITY": 0.0067866, "INCLINATION": 74.0739, "RA_OF_ASC_NODE": 158.6541, "ARG_OF_PERICENTER": 141.926, "MEAN_ANOMALY": 218.6714, "EPHEMERIS_TYPE": 0, "CLASSIFICATION_TYPE": "U", "NORAD_CAT_ID": 34431, "ELEMENT_SET_NO": 999, "REV_AT_EPOCH": 87273, "BSTAR": 0.00062894, "MEAN_MOTION_DOT": 1.6e-05, "MEAN_MOTION_DDOT": 0}, "tle": {"line1": "1 34431U 93036RY  25355.88016119  .00001600  00000+0  62894-3 0  9998", "line2": "2 34431  74.0739 158.6541 0067866 141.9260 218.6714 14.28804187872732"}}, "geometry": {"type": "Point", "coordinates": [-10.528062445843833, -35.56613041467034]}}]}